TIANMU-1 13             
1 58647U 23205C   25215.17458912  .00005185  00000+0  22646-3 0  9995
2 58647  97.3733 237.1996 0008387  26.3001 333.8660 15.22517332 89040
TIANMU-1 14             
1 58648U 23205D   25215.15717905  .00005709  00000+0  24884-3 0  9992
2 58648  97.3662 236.6539 0009563  29.7128 330.4650 15.22536190 89048
TIANMU-1 19             
1 58660U 23208A   25215.22014110  .00006596  00000+0  26874-3 0  9991
2 58660  97.4307 326.9327 0005743  16.7108 343.4318 15.24795276 88764
TIANMU-1 20             
1 58661U 23208B   25215.24428797  .00007027  00000+0  27587-3 0  9996
2 58661  97.4243 327.2748 0008374  21.9440 338.2156 15.26000441 88829
TIANMU-1 21             
1 58662U 23208C   25215.23945297  .00007799  00000+0  28779-3 0  9995
2 58662  97.4286 328.6491 0007805  19.4420 340.7116 15.28024276 88890
TIANMU-1 22             
1 58663U 23208D   25215.14237778  .00006552  00000+0  26743-3 0  9999
2 58663  97.4303 326.9520 0004956  42.7769 317.3853 15.24741619 88761
TIANMU-1 15             
1 58700U 24004A   25214.82989805  .00005111  00000+0  22397-3 0  9996
2 58700  97.4672  36.9722 0007645  44.1956 315.9890 15.22424892 87264
TIANMU-1 16             
1 58701U 24004B   25215.14160950  .00005319  00000+0  23263-3 0  9998
2 58701  97.4608  36.7844 0008072  47.4140 312.7776 15.22470494 87316
TIANMU-1 17             
1 58702U 24004C   25215.18804746  .00005724  00000+0  24898-3 0  9996
2 58702  97.4644  37.1882 0006761  50.0248 310.1581 15.22632343 87315
TIANMU-1 18             
1 58703U 24004D   25215.17376901  .00005373  00000+0  23465-3 0  9992
2 58703  97.4662  37.3329 0006361  40.4442 319.7267 15.22524055 87315
INSAT-3DS               
1 58990U 24033A   25214.50530971 -.00000146  00000+0  00000+0 0  9997
2 58990   0.0525 257.9190 0001402 240.0237  77.3829  1.00270583 43877
METEOR-M2 4             
1 59051U 24039A   25215.16156016  .00000021  00000+0  29061-4 0  9993
2 59051  98.6528 174.2949 0007461  19.7588 340.3877 14.22373651 74054
GOES 19                 
1 60133U 24119A   25214.38906569 -.00000238  00000+0  00000+0 0  9992
2 60133   0.0081  83.5006 0000247 134.8169 157.7608  1.00271202  3766
